SL-16 R/B               
1 22566U 93016B   26049.62638124 -.00000191  00000+0 -73423-4 0  9998
2 22566  71.0044 255.2217 0010635 340.0863  19.9843 14.15300291699477
COSMOS 2242             
1 22626U 93024A   26049.11162323  .00001799  00000+0  15588-3 0  9991
2 22626  82.5176 285.4444 0016862  16.3343 343.8419 14.96466123777468
SL-16 R/B               
1 22803U 93059B   26049.41995224 -.00000118  00000+0 -34547-4 0  9996
2 22803  70.9893  51.7624 0019298 243.1135 116.8017 14.17227455676805
ARIANE 40 R/B           
1 22830U 93061H   26049.21579835  .00000196  00000+0  87510-4 0  9995
2 22830  98.4959 118.4837 0010202 347.8500  12.2437 14.32850137691318
COSMOS 2278             
1 23087U 94023A   26049.57297824  .00000200  00000+0  12894-3 0  9991
2 23087  71.0508 215.0911 0007055  51.3468 308.8285 14.14365202642101
SL-16 R/B               
1 23088U 94023B   26049.55742296  .00000353  00000+0  20702-3 0  9994
2 23088  70.9994 111.0701 0004822 303.5734  56.4927 14.15008813643381
SL-16 R/B               
1 23343U 94074B   26049.59514684  .00000460  00000+0  68309-4 0  9991
2 23343  97.7135  81.1839 0005157 287.3853 189.7067 14.79384315684420
SL-16 R/B               
1 23405U 94077B   26049.40516199  .00000202  00000+0  12779-3 0  9999
2 23405  70.9833  33.0582 0003941 229.8395 130.2383 14.15562947613501
ARIANE 40+ R/B          
1 23561U 95021B   26049.21993799  .00000289  00000+0  10621-3 0  9995
2 23561  98.4538 120.9624 0006673 190.5171 235.7426 14.39757585616440
SL-16 R/B               
1 23705U 95058B   26049.62319018 -.00000125  00000+0 -39855-4 0  9998
2 23705  71.0199 220.2829 0011520 158.6583 201.5023 14.15495796565152
SL-16 R/B               
1 24298U 96051B   26049.61930169  .00000073  00000+0  65928-4 0  9995
2 24298  70.7574 215.6023 0016797 175.2901 184.8380 14.12410200518956
ORBVIEW 2 (SEASTAR)     
1 24883U 97037A   26049.45882027  .00000255  00000+0  10504-3 0  9992
2 24883  98.8530 213.2644 0003148 110.7429 249.4093 14.35479188505711
