CCSDS_OMM_VERS = 2.0
CREATION_DATE  = 
ORIGINATOR     = 

OBJECT_NAME    = SL-16 R/B
OBJECT_ID      = 1993-016B
CENTER_NAME    = EARTH
REF_FRAME      = TEME
TIME_SYSTEM    = UTC
MEAN_ELEMENT_THEORY = SGP/SGP4

EPOCH          = 2026-02-18T15:01:59.339136
MEAN_MOTION    = 14.15300291
ECCENTRICITY   = .00106353
INCLINATION    = 71.0044
RA_OF_ASC_NODE = 255.2217
ARG_OF_PERICENTER = 340.0863
MEAN_ANOMALY   = 19.9843

EPHEMERIS_TYPE = 0
CLASSIFICATION_TYPE = U
NORAD_CAT_ID   = 22566
ELEMENT_SET_NO = 999
REV_AT_EPOCH   = 69947
BSTAR          = -.73422898E-4
MEAN_MOTION_DOT = -.191E-5
MEAN_MOTION_DDOT = 0

CCSDS_OMM_VERS = 2.0
CREATION_DATE  = 
ORIGINATOR     = 

OBJECT_NAME    = COSMOS 2242
OBJECT_ID      = 1993-024A
CENTER_NAME    = EARTH
REF_FRAME      = TEME
TIME_SYSTEM    = UTC
MEAN_ELEMENT_THEORY = SGP/SGP4

EPOCH          = 2026-02-18T02:40:44.247072
MEAN_MOTION    = 14.96466123
ECCENTRICITY   = .00168629
INCLINATION    = 82.5176
RA_OF_ASC_NODE = 285.4444
ARG_OF_PERICENTER = 16.3343
MEAN_ANOMALY   = 343.8419

EPHEMERIS_TYPE = 0
CLASSIFICATION_TYPE = U
NORAD_CAT_ID   = 22626
ELEMENT_SET_NO = 999
REV_AT_EPOCH   = 77746
BSTAR          = .15587905E-3
MEAN_MOTION_DOT = .1799E-4
MEAN_MOTION_DDOT = 0

CCSDS_OMM_VERS = 2.0
CREATION_DATE  = 
ORIGINATOR     = 

OBJECT_NAME    = SL-16 R/B
OBJECT_ID      = 1993-059B
CENTER_NAME    = EARTH
REF_FRAME      = TEME
TIME_SYSTEM    = UTC
MEAN_ELEMENT_THEORY = SGP/SGP4

EPOCH          = 2026-02-18T10:04:43.873536
MEAN_MOTION    = 14.17227455
ECCENTRICITY   = .00192982
INCLINATION    = 70.9893
RA_OF_ASC_NODE = 51.7624
ARG_OF_PERICENTER = 243.1135
MEAN_ANOMALY   = 116.8017

EPHEMERIS_TYPE = 0
CLASSIFICATION_TYPE = U
NORAD_CAT_ID   = 22803
ELEMENT_SET_NO = 999
REV_AT_EPOCH   = 67680
BSTAR          = -.34547144E-4
MEAN_MOTION_DOT = -.118E-5
MEAN_MOTION_DDOT = 0

CCSDS_OMM_VERS = 2.0
CREATION_DATE  = 
ORIGINATOR     = 

OBJECT_NAME    = ARIANE 40 R/B
OBJECT_ID      = 1993-061H
CENTER_NAME    = EARTH
REF_FRAME      = TEME
TIME_SYSTEM    = UTC
MEAN_ELEMENT_THEORY = SGP/SGP4

EPOCH          = 2026-02-18T05:10:44.977440
MEAN_MOTION    = 14.32850137
ECCENTRICITY   = .00102022
INCLINATION    = 98.4959
RA_OF_ASC_NODE = 118.4837
ARG_OF_PERICENTER = 347.8500
MEAN_ANOMALY   = 12.2437

EPHEMERIS_TYPE = 0
CLASSIFICATION_TYPE = U
NORAD_CAT_ID   = 22830
ELEMENT_SET_NO = 999
REV_AT_EPOCH   = 69131
BSTAR          = .87509991E-4
MEAN_MOTION_DOT = .196E-5
MEAN_MOTION_DDOT = 0

CCSDS_OMM_VERS = 2.0
CREATION_DATE  = 
ORIGINATOR     = 

OBJECT_NAME    = COSMOS 2278
OBJECT_ID      = 1994-023A
CENTER_NAME    = EARTH
REF_FRAME      = TEME
TIME_SYSTEM    = UTC
MEAN_ELEMENT_THEORY = SGP/SGP4

EPOCH          = 2026-02-18T13:45:05.319936
MEAN_MOTION    = 14.14365202
ECCENTRICITY   = .00070551
INCLINATION    = 71.0508
RA_OF_ASC_NODE = 215.0911
ARG_OF_PERICENTER = 51.3468
MEAN_ANOMALY   = 308.8285

EPHEMERIS_TYPE = 0
CLASSIFICATION_TYPE = U
NORAD_CAT_ID   = 23087
ELEMENT_SET_NO = 999
REV_AT_EPOCH   = 64210
BSTAR          = .12894051E-3
MEAN_MOTION_DOT = .2E-5
MEAN_MOTION_DDOT = 0

CCSDS_OMM_VERS = 2.0
CREATION_DATE  = 
ORIGINATOR     = 

OBJECT_NAME    = SL-16 R/B
OBJECT_ID      = 1994-023B
CENTER_NAME    = EARTH
REF_FRAME      = TEME
TIME_SYSTEM    = UTC
MEAN_ELEMENT_THEORY = SGP/SGP4

EPOCH          = 2026-02-18T13:22:41.343744
MEAN_MOTION    = 14.15008813
ECCENTRICITY   = .00048229
INCLINATION    = 70.9994
RA_OF_ASC_NODE = 111.0701
ARG_OF_PERICENTER = 303.5734
MEAN_ANOMALY   = 56.4927

EPHEMERIS_TYPE = 0
CLASSIFICATION_TYPE = U
NORAD_CAT_ID   = 23088
ELEMENT_SET_NO = 999
REV_AT_EPOCH   = 64338
BSTAR          = .20702096E-3
MEAN_MOTION_DOT = .353E-5
MEAN_MOTION_DDOT = 0

CCSDS_OMM_VERS = 2.0
CREATION_DATE  = 
ORIGINATOR     = 

OBJECT_NAME    = SL-16 R/B
OBJECT_ID      = 1994-074B
CENTER_NAME    = EARTH
REF_FRAME      = TEME
TIME_SYSTEM    = UTC
MEAN_ELEMENT_THEORY = SGP/SGP4

EPOCH          = 2026-02-18T14:17:00.686976
MEAN_MOTION    = 14.79384315
ECCENTRICITY   = .00051579
INCLINATION    = 97.7135
RA_OF_ASC_NODE = 81.1839
ARG_OF_PERICENTER = 287.3853
MEAN_ANOMALY   = 189.7067

EPHEMERIS_TYPE = 0
CLASSIFICATION_TYPE = U
NORAD_CAT_ID   = 23343
ELEMENT_SET_NO = 999
REV_AT_EPOCH   = 68442
BSTAR          = .68309346E-4
MEAN_MOTION_DOT = .46E-5
MEAN_MOTION_DDOT = 0

CCSDS_OMM_VERS = 2.0
CREATION_DATE  = 
ORIGINATOR     = 

OBJECT_NAME    = SL-16 R/B
OBJECT_ID      = 1994-077B
CENTER_NAME    = EARTH
REF_FRAME      = TEME
TIME_SYSTEM    = UTC
MEAN_ELEMENT_THEORY = SGP/SGP4

EPOCH          = 2026-02-18T09:43:25.995936
MEAN_MOTION    = 14.15562947
ECCENTRICITY   = .0003941
INCLINATION    = 70.9833
RA_OF_ASC_NODE = 33.0582
ARG_OF_PERICENTER = 229.8395
MEAN_ANOMALY   = 130.2383

EPHEMERIS_TYPE = 0
CLASSIFICATION_TYPE = U
NORAD_CAT_ID   = 23405
ELEMENT_SET_NO = 999
REV_AT_EPOCH   = 61350
BSTAR          = .12779207E-3
MEAN_MOTION_DOT = .202E-5
MEAN_MOTION_DDOT = 0

CCSDS_OMM_VERS = 2.0
CREATION_DATE  = 
ORIGINATOR     = 

OBJECT_NAME    = ARIANE 40+ R/B
OBJECT_ID      = 1995-021B
CENTER_NAME    = EARTH
REF_FRAME      = TEME
TIME_SYSTEM    = UTC
MEAN_ELEMENT_THEORY = SGP/SGP4

EPOCH          = 2026-02-18T05:16:42.642336
MEAN_MOTION    = 14.39757585
ECCENTRICITY   = .00066731
INCLINATION    = 98.4538
RA_OF_ASC_NODE = 120.9624
ARG_OF_PERICENTER = 190.5171
MEAN_ANOMALY   = 235.7426

EPHEMERIS_TYPE = 0
CLASSIFICATION_TYPE = U
NORAD_CAT_ID   = 23561
ELEMENT_SET_NO = 999
REV_AT_EPOCH   = 61644
BSTAR          = .10621172E-3
MEAN_MOTION_DOT = .289E-5
MEAN_MOTION_DDOT = 0

CCSDS_OMM_VERS = 2.0
CREATION_DATE  = 
ORIGINATOR     = 

OBJECT_NAME    = SL-16 R/B
OBJECT_ID      = 1995-058B
CENTER_NAME    = EARTH
REF_FRAME      = TEME
TIME_SYSTEM    = UTC
MEAN_ELEMENT_THEORY = SGP/SGP4

EPOCH          = 2026-02-18T14:57:23.631552
MEAN_MOTION    = 14.15495796
ECCENTRICITY   = .00115205
INCLINATION    = 71.0199
RA_OF_ASC_NODE = 220.2829
ARG_OF_PERICENTER = 158.6583
MEAN_ANOMALY   = 201.5023

EPHEMERIS_TYPE = 0
CLASSIFICATION_TYPE = U
NORAD_CAT_ID   = 23705
ELEMENT_SET_NO = 999
REV_AT_EPOCH   = 56515
BSTAR          = -.39854656E-4
MEAN_MOTION_DOT = -.125E-5
MEAN_MOTION_DDOT = 0

CCSDS_OMM_VERS = 2.0
CREATION_DATE  = 
ORIGINATOR     = 

OBJECT_NAME    = SL-16 R/B
OBJECT_ID      = 1996-051B
CENTER_NAME    = EARTH
REF_FRAME      = TEME
TIME_SYSTEM    = UTC
MEAN_ELEMENT_THEORY = SGP/SGP4

EPOCH          = 2026-02-18T14:51:47.666016
MEAN_MOTION    = 14.12410200
ECCENTRICITY   = .00167979
INCLINATION    = 70.7574
RA_OF_ASC_NODE = 215.6023
ARG_OF_PERICENTER = 175.2901
MEAN_ANOMALY   = 184.8380

EPHEMERIS_TYPE = 0
CLASSIFICATION_TYPE = U
NORAD_CAT_ID   = 24298
ELEMENT_SET_NO = 999
REV_AT_EPOCH   = 51895
BSTAR          = .65927608E-4
MEAN_MOTION_DOT = .73E-6
MEAN_MOTION_DDOT = 0

CCSDS_OMM_VERS = 2.0
CREATION_DATE  = 
ORIGINATOR     = 

OBJECT_NAME    = ORBVIEW 2 (SEASTAR)
OBJECT_ID      = 1997-037A
CENTER_NAME    = EARTH
REF_FRAME      = TEME
TIME_SYSTEM    = UTC
MEAN_ELEMENT_THEORY = SGP/SGP4

EPOCH          = 2026-02-18T11:00:42.071328
MEAN_MOTION    = 14.35479188
ECCENTRICITY   = .00031483
INCLINATION    = 98.8530
RA_OF_ASC_NODE = 213.2644
ARG_OF_PERICENTER = 110.7429
MEAN_ANOMALY   = 249.4093

EPHEMERIS_TYPE = 0
CLASSIFICATION_TYPE = U
NORAD_CAT_ID   = 24883
ELEMENT_SET_NO = 999
REV_AT_EPOCH   = 50571
BSTAR          = .10504237E-3
MEAN_MOTION_DOT = .255E-5
MEAN_MOTION_DDOT = 0

